{
  "type": "FeatureCollection",
  "features": [
    {
      "type": "Feature",
      "properties": {
        "norad_id": 41890,
        "name": "CYGFM07",
        "group": "weather",
        "lat": 16.073846233366755,
        "lon": 146.17625308611323,
        "alt_km": 414.6014898409385,
        "timestamp": "2025-12-17T10:52:53.991794+00:00",
        "meta_object_name": "CYGFM07",
        "meta_object_id": "2016-078G",
        "meta_epoch": "2025-12-16T11:02:55.401216",
        "meta_mean_motion": 15.50160123,
        "meta_eccentricity": 0.00101456,
        "meta_inclination": 34.9485,
        "meta_ra_of_asc_node": 357.0563,
        "meta_arg_of_pericenter": 247.5828,
        "meta_mean_anomaly": 112.382,
        "meta_ephemeris_type": 0,
        "meta_classification_type": "U",
        "meta_norad_cat_id": 41890,
        "meta_element_set_no": 999,
        "meta_rev_at_epoch": 50053,
        "meta_bstar": 0.00032713279,
        "meta_mean_motion_dot": 0.00019056,
        "meta_mean_motion_ddot": 0,
        "tle_line1": "1 41890U 16078G   25350.46036344  .00019056  00000+0  32713-3 0  9998",
        "tle_line2": "2 41890  34.9485 357.0563 0010145 247.5828 112.3820 15.50160123500537"
      },
      "geometry": {
        "type": "Point",
        "coordinates": [
          146.17625308611323,
          16.073846233366755
        ]
      }
    },
    {
      "type": "Feature",
      "properties": {
        "norad_id": 41891,
        "name": "CYGFM03",
        "group": "weather",
        "lat": -8.99088833835812,
        "lon": -20.631085386340285,
        "alt_km": 417.4610037566572,
        "timestamp": "2025-12-17T10:52:53.991805+00:00",
        "meta_object_name": "CYGFM03",
        "meta_object_id": "2016-078H",
        "meta_epoch": "2025-12-16T10:13:06.845952",
        "meta_mean_motion": 15.50055512,
        "meta_eccentricity": 0.00095884,
        "meta_inclination": 34.9438,
        "meta_ra_of_asc_node": 359.2043,
        "meta_arg_of_pericenter": 235.346,
        "meta_mean_anomaly": 124.6359,
        "meta_ephemeris_type": 0,
        "meta_classification_type": "U",
        "meta_norad_cat_id": 41891,
        "meta_element_set_no": 999,
        "meta_rev_at_epoch": 50050,
        "meta_bstar": 0.00031705285,
        "meta_mean_motion_dot": 0.00018393,
        "meta_mean_motion_ddot": 0,
        "tle_line1": "1 41891U 16078H   25350.42577368  .00018393  00000+0  31705-3 0  9994",
        "tle_line2": "2 41891  34.9438 359.2043 0009588 235.3460 124.6359 15.50055512500504"
      },
      "geometry": {
        "type": "Point",
        "coordinates": [
          -20.631085386340285,
          -8.99088833835812
        ]
      }
    },
    {
      "type": "Feature",
      "properties": {
        "norad_id": 43010,
        "name": "FENGYUN 3D",
        "group": "weather",
        "lat": -34.58034169274952,
        "lon": -35.901831740050646,
        "alt_km": 833.341167583385,
        "timestamp": "2025-12-17T10:52:53.991816+00:00",
        "meta_object_name": "FENGYUN 3D",
        "meta_object_id": "2017-072A",
        "meta_epoch": "2025-12-16T23:12:22.870368",
        "meta_mean_motion": 14.19686173,
        "meta_eccentricity": 0.00011462,
        "meta_inclination": 98.9888,
        "meta_ra_of_asc_node": 317.3403,
        "meta_arg_of_pericenter": 169.6565,
        "meta_mean_anomaly": 190.4634,
        "meta_ephemeris_type": 0,
        "meta_classification_type": "U",
        "meta_norad_cat_id": 43010,
        "meta_element_set_no": 999,
        "meta_rev_at_epoch": 41913,
        "meta_bstar": 0.00017363592,
        "meta_mean_motion_dot": 3.21e-06,
        "meta_mean_motion_ddot": 0,
        "tle_line1": "1 43010U 17072A   25350.96693137  .00000321  00000+0  17364-3 0  9993",
        "tle_line2": "2 43010  98.9888 317.3403 0001146 169.6565 190.4634 14.19686173419132"
      },
      "geometry": {
        "type": "Point",
        "coordinates": [
          -35.901831740050646,
          -34.58034169274952
        ]
      }
    },
    {
      "type": "Feature",
      "properties": {
        "norad_id": 43013,
        "name": "NOAA 20 (JPSS-1)",
        "group": "weather",
        "lat": 63.94114072751043,
        "lon": 126.0792085212853,
        "alt_km": 819.4077932612308,
        "timestamp": "2025-12-17T10:52:53.991828+00:00",
        "meta_object_name": "NOAA 20 (JPSS-1)",
        "meta_object_id": "2017-073A",
        "meta_epoch": "2025-12-16T22:30:08.390304",
        "meta_mean_motion": 14.19526878,
        "meta_eccentricity": 0.00021562,
        "meta_inclination": 98.7603,
        "meta_ra_of_asc_node": 287.1885,
        "meta_arg_of_pericenter": 81.1496,
        "meta_mean_anomaly": 278.9924,
        "meta_ephemeris_type": 0,
        "meta_classification_type": "U",
        "meta_norad_cat_id": 43013,
        "meta_element_set_no": 999,
        "meta_rev_at_epoch": 41861,
        "meta_bstar": 5.8734041e-05,
        "meta_mean_motion_dot": 8e-07,
        "meta_mean_motion_ddot": 0,
        "tle_line1": "1 43013U 17073A   25350.93759711  .00000080  00000+0  58734-4 0  9994",
        "tle_line2": "2 43013  98.7603 287.1885 0002156  81.1496 278.9924 14.19526878418610"
      },
      "geometry": {
        "type": "Point",
        "coordinates": [
          126.0792085212853,
          63.94114072751043
        ]
      }
    },
    {
      "type": "Feature",
      "properties": {
        "norad_id": 43226,
        "name": "GOES 17",
        "group": "weather",
        "lat": 0.4449326853509457,
        "lon": 160.01422482328235,
        "alt_km": 35792.67068104864,
        "timestamp": "2025-12-17T10:52:53.991841+00:00",
        "meta_object_name": "GOES 17",
        "meta_object_id": "2018-022A",
        "meta_epoch": "2025-12-16T14:38:37.445568",
        "meta_mean_motion": 1.00271346,
        "meta_eccentricity": 0.00031147,
        "meta_inclination": 0.4682,
        "meta_ra_of_asc_node": 89.1672,
        "meta_arg_of_pericenter": 190.4506,
        "meta_mean_anomaly": 296.0407,
        "meta_ephemeris_type": 0,
        "meta_classification_type": "U",
        "meta_norad_cat_id": 43226,
        "meta_element_set_no": 999,
        "meta_rev_at_epoch": 2859,
        "meta_bstar": 0,
        "meta_mean_motion_dot": -1.59e-06,
        "meta_mean_motion_ddot": 0,
        "tle_line1": "1 43226U 18022A   25350.61015562 -.00000159  00000+0  00000+0 0  9995",
        "tle_line2": "2 43226   0.4682  89.1672 0003114 190.4506 296.0407  1.00271346 28592"
      },
      "geometry": {
        "type": "Point",
        "coordinates": [
          160.01422482328235,
          0.4449326853509457
        ]
      }
    },
    {
      "type": "Feature",
      "properties": {
        "norad_id": 43491,
        "name": "FENGYUN 2H",
        "group": "weather",
        "lat": -2.378334053974078,
        "lon": -31.089395338941618,
        "alt_km": 35784.849587636236,
        "timestamp": "2025-12-17T10:52:53.991854+00:00",
        "meta_object_name": "FENGYUN 2H",
        "meta_object_id": "2018-050A",
        "meta_epoch": "2025-12-16T20:34:57.718272",
        "meta_mean_motion": 1.00271391,
        "meta_eccentricity": 0.00024824,
        "meta_inclination": 2.5614,
        "meta_ra_of_asc_node": 81.2864,
        "meta_arg_of_pericenter": 166.6314,
        "meta_mean_anomaly": 225.921,
        "meta_ephemeris_type": 0,
        "meta_classification_type": "U",
        "meta_norad_cat_id": 43491,
        "meta_element_set_no": 999,
        "meta_rev_at_epoch": 2761,
        "meta_bstar": 0,
        "meta_mean_motion_dot": -1.07e-06,
        "meta_mean_motion_ddot": 0,
        "tle_line1": "1 43491U 18050A   25350.85761248 -.00000107  00000+0  00000+0 0  9998",
        "tle_line2": "2 43491   2.5614  81.2864 0002482 166.6314 225.9210  1.00271391 27614"
      },
      "geometry": {
        "type": "Point",
        "coordinates": [
          -31.089395338941618,
          -2.378334053974078
        ]
      }
    },
    {
      "type": "Feature",
      "properties": {
        "norad_id": 43689,
        "name": "METOP-C",
        "group": "weather",
        "lat": -69.43548525650111,
        "lon": 73.21630716560983,
        "alt_km": 827.7252018634263,
        "timestamp": "2025-12-17T10:52:53.991875+00:00",
        "meta_object_name": "METOP-C",
        "meta_object_id": "2018-087A",
        "meta_epoch": "2025-12-16T23:23:28.503744",
        "meta_mean_motion": 14.21485998,
        "meta_eccentricity": 0.00010481,
        "meta_inclination": 98.6926,
        "meta_ra_of_asc_node": 48.6794,
        "meta_arg_of_pericenter": 31.3549,
        "meta_mean_anomaly": 328.7691,
        "meta_ephemeris_type": 0,
        "meta_classification_type": "U",
        "meta_norad_cat_id": 43689,
        "meta_element_set_no": 999,
        "meta_rev_at_epoch": 36894,
        "meta_bstar": 7.6899975e-05,
        "meta_mean_motion_dot": 1.25e-06,
        "meta_mean_motion_ddot": 0,
        "tle_line1": "1 43689U 18087A   25350.97463546  .00000125  00000+0  76900-4 0  9996",
        "tle_line2": "2 43689  98.6926  48.6794 0001048  31.3549 328.7691 14.21485998368945"
      },
      "geometry": {
        "type": "Point",
        "coordinates": [
          73.21630716560983,
          -69.43548525650111
        ]
      }
    }
  ]
}